[{"OBJECT_NAME":"THAICOM 8","OBJECT_ID":"2016-031A","EPOCH":"2026-04-25T22:59:38.461920","MEAN_MOTION":1.00271797,"ECCENTRICITY":0.00042121,"INCLINATION":0.0636,"RA_OF_ASC_NODE":42.1502,"ARG_OF_PERICENTER":345.2983,"MEAN_ANOMALY":249.966,"EPHEMERIS_TYPE":0,"CLASSIFICATION_TYPE":"U","NORAD_CAT_ID":41552,"ELEMENT_SET_NO":999,"REV_AT_EPOCH":3619,"BSTAR":0,"MEAN_MOTION_DOT":-1.35e-6,"MEAN_MOTION_DDOT":0},{"OBJECT_NAME":"INTELSAT 31 (IS-31)","OBJECT_ID":"2016-035A","EPOCH":"2026-04-25T21:42:54.675072","MEAN_MOTION":1.00270975,"ECCENTRICITY":0.00022252,"INCLINATION":0.0111,"RA_OF_ASC_NODE":234.1895,"ARG_OF_PERICENTER":40.3457,"MEAN_ANOMALY":170.0615,"EPHEMERIS_TYPE":0,"CLASSIFICATION_TYPE":"U","NORAD_CAT_ID":41581,"ELEMENT_SET_NO":999,"REV_AT_EPOCH":3615,"BSTAR":0,"MEAN_MOTION_DOT":-1.64e-6,"MEAN_MOTION_DDOT":0},{"OBJECT_NAME":"BEIDOU-2 G7","OBJECT_ID":"2016-037A","EPOCH":"2026-04-25T20:58:43.910976","MEAN_MOTION":1.00265627,"ECCENTRICITY":0.00076755,"INCLINATION":1.5927,"RA_OF_ASC_NODE":68.8025,"ARG_OF_PERICENTER":354.2855,"MEAN_ANOMALY":215.9313,"EPHEMERIS_TYPE":0,"CLASSIFICATION_TYPE":"U","NORAD_CAT_ID":41586,"ELEMENT_SET_NO":999,"REV_AT_EPOCH":636,"BSTAR":0,"MEAN_MOTION_DOT":-3.65e-6,"MEAN_MOTION_DDOT":0},{"OBJECT_NAME":"ABS-2A (MONGOLSAT-1)","OBJECT_ID":"2016-038A","EPOCH":"2026-04-25T21:49:51.759840","MEAN_MOTION":1.00268606,"ECCENTRICITY":0.00017178,"INCLINATION":0.0161,"RA_OF_ASC_NODE":242.0712,"ARG_OF_PERICENTER":92.359,"MEAN_ANOMALY":281.6651,"EPHEMERIS_TYPE":0,"CLASSIFICATION_TYPE":"U","NORAD_CAT_ID":41588,"ELEMENT_SET_NO":999,"REV_AT_EPOCH":3618,"BSTAR":0,"MEAN_MOTION_DOT":0,"MEAN_MOTION_DDOT":0},{"OBJECT_NAME":"EUTELSAT 117 WEST B","OBJECT_ID":"2016-038B","EPOCH":"2026-04-25T21:36:32.785344","MEAN_MOTION":1.00271646,"ECCENTRICITY":3.807e-5,"INCLINATION":0.006,"RA_OF_ASC_NODE":101.7562,"ARG_OF_PERICENTER":194.5803,"MEAN_ANOMALY":124.7207,"EPHEMERIS_TYPE":0,"CLASSIFICATION_TYPE":"U","NORAD_CAT_ID":41589,"ELEMENT_SET_NO":999,"REV_AT_EPOCH":3613,"BSTAR":0,"MEAN_MOTION_DOT":-2.5e-7,"MEAN_MOTION_DDOT":0},{"OBJECT_NAME":"BRISAT","OBJECT_ID":"2016-039A","EPOCH":"2026-04-25T18:37:38.764704","MEAN_MOTION":1.00271581,"ECCENTRICITY":0.00020796,"INCLINATION":0.0155,"RA_OF_ASC_NODE":257.2999,"ARG_OF_PERICENTER":128.5284,"MEAN_ANOMALY":257.8682,"EPHEMERIS_TYPE":0,"CLASSIFICATION_TYPE":"U","NORAD_CAT_ID":41591,"ELEMENT_SET_NO":999,"REV_AT_EPOCH":3608,"BSTAR":0,"MEAN_MOTION_DOT":-2.1e-6,"MEAN_MOTION_DDOT":0},{"OBJECT_NAME":"ECHOSTAR 18","OBJECT_ID":"2016-039B","EPOCH":"2026-04-25T20:57:38.714400","MEAN_MOTION":1.00270316,"ECCENTRICITY":0.00015113,"INCLINATION":0.0144,"RA_OF_ASC_NODE":203.2223,"ARG_OF_PERICENTER":194.5044,"MEAN_ANOMALY":69.1828,"EPHEMERIS_TYPE":0,"CLASSIFICATION_TYPE":"U","NORAD_CAT_ID":41592,"ELEMENT_SET_NO":999,"REV_AT_EPOCH":3610,"BSTAR":0,"MEAN_MOTION_DOT":-2.96e-6,"MEAN_MOTION_DDOT":0},{"OBJECT_NAME":"MUOS-5","OBJECT_ID":"2016-041A","EPOCH":"2026-04-25T21:39:32.498208","MEAN_MOTION":1.00270645,"ECCENTRICITY":0.01947655,"INCLINATION":2.3162,"RA_OF_ASC_NODE":300.7222,"ARG_OF_PERICENTER":261.7254,"MEAN_ANOMALY":231.461,"EPHEMERIS_TYPE":0,"CLASSIFICATION_TYPE":"U","NORAD_CAT_ID":41622,"ELEMENT_SET_NO":999,"REV_AT_EPOCH":3656,"BSTAR":0,"MEAN_MOTION_DOT":-1.72e-6,"MEAN_MOTION_DDOT":0},{"OBJECT_NAME":"TIANTONG-1 1","OBJECT_ID":"2016-048A","EPOCH":"2026-04-25T17:30:54.144576","MEAN_MOTION":1.00269141,"ECCENTRICITY":0.00064406,"INCLINATION":3.7515,"RA_OF_ASC_NODE":42.9578,"ARG_OF_PERICENTER":20.2339,"MEAN_ANOMALY":154.645,"EPHEMERIS_TYPE":0,"CLASSIFICATION_TYPE":"U","NORAD_CAT_ID":41725,"ELEMENT_SET_NO":999,"REV_AT_EPOCH":3574,"BSTAR":0,"MEAN_MOTION_DOT":-3.28e-6,"MEAN_MOTION_DDOT":0},{"OBJECT_NAME":"JCSAT-16","OBJECT_ID":"2016-050A","EPOCH":"2026-04-25T22:51:03.140352","MEAN_MOTION":1.00267039,"ECCENTRICITY":0.00010612,"INCLINATION":0.0168,"RA_OF_ASC_NODE":232.3199,"ARG_OF_PERICENTER":169.9442,"MEAN_ANOMALY":298.4186,"EPHEMERIS_TYPE":0,"CLASSIFICATION_TYPE":"U","NORAD_CAT_ID":41729,"ELEMENT_SET_NO":999,"REV_AT_EPOCH":3554,"BSTAR":0,"MEAN_MOTION_DOT":0,"MEAN_MOTION_DDOT":0},{"OBJECT_NAME":"USA 270","OBJECT_ID":"2016-052A","EPOCH":"2026-04-21T06:04:50.988288","MEAN_MOTION":1.00347865,"ECCENTRICITY":0.0003438,"INCLINATION":4.0526,"RA_OF_ASC_NODE":77.8945,"ARG_OF_PERICENTER":320.1673,"MEAN_ANOMALY":82.448,"EPHEMERIS_TYPE":0,"CLASSIFICATION_TYPE":"U","NORAD_CAT_ID":41744,"ELEMENT_SET_NO":999,"REV_AT_EPOCH":2756,"BSTAR":0,"MEAN_MOTION_DOT":6.0e-7,"MEAN_MOTION_DDOT":0},{"OBJECT_NAME":"USA 271","OBJECT_ID":"2016-052B","EPOCH":"2026-04-20T21:15:19.276128","MEAN_MOTION":1.00241576,"ECCENTRICITY":0.0007317,"INCLINATION":4.024,"RA_OF_ASC_NODE":77.9674,"ARG_OF_PERICENTER":143.7849,"MEAN_ANOMALY":69.2738,"EPHEMERIS_TYPE":0,"CLASSIFICATION_TYPE":"U","NORAD_CAT_ID":41745,"ELEMENT_SET_NO":999,"REV_AT_EPOCH":2734,"BSTAR":0,"MEAN_MOTION_DOT":-3.6e-6,"MEAN_MOTION_DDOT":0},{"OBJECT_NAME":"INTELSAT 36 (IS-36)","OBJECT_ID":"2016-053A","EPOCH":"2026-04-25T22:59:38.461920","MEAN_MOTION":1.00279675,"ECCENTRICITY":0.0001416,"INCLINATION":0.015,"RA_OF_ASC_NODE":329.9187,"ARG_OF_PERICENTER":8.4872,"MEAN_ANOMALY":288.9663,"EPHEMERIS_TYPE":0,"CLASSIFICATION_TYPE":"U","NORAD_CAT_ID":41747,"ELEMENT_SET_NO":999,"REV_AT_EPOCH":3543,"BSTAR":0,"MEAN_MOTION_DOT":-4.0e-7,"MEAN_MOTION_DDOT":0},{"OBJECT_NAME":"INSAT-3DR","OBJECT_ID":"2016-054A","EPOCH":"2026-04-25T23:31:43.073760","MEAN_MOTION":1.00271318,"ECCENTRICITY":0.00116609,"INCLINATION":0.1129,"RA_OF_ASC_NODE":86.1844,"ARG_OF_PERICENTER":195.1084,"MEAN_ANOMALY":359.6159,"EPHEMERIS_TYPE":0,"CLASSIFICATION_TYPE":"U","NORAD_CAT_ID":41752,"ELEMENT_SET_NO":999,"REV_AT_EPOCH":3529,"BSTAR":0,"MEAN_MOTION_DOT":-9.0e-7,"MEAN_MOTION_DDOT":0},{"OBJECT_NAME":"GSAT-18","OBJECT_ID":"2016-060A","EPOCH":"2026-04-25T20:48:22.403808","MEAN_MOTION":1.00271283,"ECCENTRICITY":0.00050118,"INCLINATION":0.0636,"RA_OF_ASC_NODE":82.3459,"ARG_OF_PERICENTER":335.1078,"MEAN_ANOMALY":182.5254,"EPHEMERIS_TYPE":0,"CLASSIFICATION_TYPE":"U","NORAD_CAT_ID":41793,"ELEMENT_SET_NO":999,"REV_AT_EPOCH":3500,"BSTAR":0,"MEAN_MOTION_DOT":-9.1e-7,"MEAN_MOTION_DDOT":0},{"OBJECT_NAME":"SKY MUSTER 2 (NBN1B)","OBJECT_ID":"2016-060B","EPOCH":"2026-04-25T21:08:35.465856","MEAN_MOTION":1.00272149,"ECCENTRICITY":0.00016459,"INCLINATION":0.0174,"RA_OF_ASC_NODE":255.5205,"ARG_OF_PERICENTER":130.8813,"MEAN_ANOMALY":289.4305,"EPHEMERIS_TYPE":0,"CLASSIFICATION_TYPE":"U","NORAD_CAT_ID":41794,"ELEMENT_SET_NO":999,"REV_AT_EPOCH":3499,"BSTAR":0,"MEAN_MOTION_DOT":-2.58e-6,"MEAN_MOTION_DDOT":0},{"OBJECT_NAME":"HIMAWARI-9","OBJECT_ID":"2016-064A","EPOCH":"2026-04-25T22:50:10.724064","MEAN_MOTION":1.00273826,"ECCENTRICITY":8.498e-5,"INCLINATION":0.0351,"RA_OF_ASC_NODE":130.9871,"ARG_OF_PERICENTER":265.1317,"MEAN_ANOMALY":301.1521,"EPHEMERIS_TYPE":0,"CLASSIFICATION_TYPE":"U","NORAD_CAT_ID":41836,"ELEMENT_SET_NO":999,"REV_AT_EPOCH":3468,"BSTAR":0,"MEAN_MOTION_DOT":-2.88e-6,"MEAN_MOTION_DDOT":0}]
