THAICOM 8               
1 41552U 16031A   26115.95808405 -.00000135  00000+0  00000+0 0  9990
2 41552   0.0636  42.1502 0004212 345.2983 249.9660  1.00271797 36190
INTELSAT 31 (IS-31)     
1 41581U 16035A   26115.90479948 -.00000164  00000+0  00000+0 0  9999
2 41581   0.0111 234.1895 0002225  40.3457 170.0615  1.00270975 36156
BEIDOU-2 G7             
1 41586U 16037A   26115.87411934 -.00000365  00000+0  00000+0 0  9996
2 41586   1.5927  68.8025 0007675 354.2855 215.9313  1.00265627  6364
ABS-2A (MONGOLSAT-1)    
1 41588U 16038A   26115.90962685  .00000000  00000+0  00000+0 0  9992
2 41588   0.0161 242.0712 0001717  92.3590 281.6651  1.00268606 36184
EUTELSAT 117 WEST B     
1 41589U 16038B   26115.90037946 -.00000025  00000+0  00000+0 0  9994
2 41589   0.0060 101.7562 0000380 194.5803 124.7207  1.00271646 36131
BRISAT                  
1 41591U 16039A   26115.77614311 -.00000210  00000+0  00000+0 0  9996
2 41591   0.0155 257.2999 0002079 128.5284 257.8682  1.00271581 36084
ECHOSTAR 18             
1 41592U 16039B   26115.87336475 -.00000296  00000+0  00000+0 0  9994
2 41592   0.0144 203.2223 0001511 194.5044  69.1828  1.00270316 36105
MUOS-5                  
1 41622U 16041A   26115.90245947 -.00000172  00000+0  00000+0 0  9991
2 41622   2.3162 300.7222 0194765 261.7254 231.4610  1.00270645 36568
TIANTONG-1 1            
1 41725U 16048A   26115.72979334 -.00000328  00000+0  00000+0 0  9999
2 41725   3.7515  42.9578 0006440  20.2339 154.6450  1.00269141 35748
JCSAT-16                
1 41729U 16050A   26115.95211968  .00000000  00000+0  00000+0 0  9999
2 41729   0.0168 232.3199 0001061 169.9442 298.4186  1.00267039 35545
USA 270                 
1 41744U 16052A   26111.25336792  .00000060  00000+0  00000+0 0  9996
2 41744   4.0526  77.8945 0003438 320.1673  82.4480  1.00347865 27569
USA 271                 
1 41745U 16052B   26110.88563977 -.00000360  00000+0  00000+0 0  9996
2 41745   4.0240  77.9674 0007317 143.7849  69.2738  1.00241576 27344
INTELSAT 36 (IS-36)     
1 41747U 16053A   26115.95808405 -.00000040  00000+0  00000+0 0  9995
2 41747   0.0150 329.9187 0001416   8.4872 288.9663  1.00279675 35435
INSAT-3DR               
1 41752U 16054A   26115.98035965 -.00000090  00000+0  00000+0 0  9993
2 41752   0.1129  86.1844 0011660 195.1084 359.6159  1.00271318 35297
GSAT-18                 
1 41793U 16060A   26115.86692597 -.00000091  00000+0  00000+0 0  9993
2 41793   0.0636  82.3459 0005011 335.1078 182.5254  1.00271283 35005
SKY MUSTER 2 (NBN1B)    
1 41794U 16060B   26115.88096604 -.00000258  00000+0  00000+0 0  9998
2 41794   0.0174 255.5205 0001645 130.8813 289.4305  1.00272149 34995
HIMAWARI-9              
1 41836U 16064A   26115.95151301 -.00000288  00000+0  00000+0 0  9996
2 41836   0.0351 130.9871 0000849 265.1317 301.1521  1.00273826 34681
